#dP2024  7 15 12  0  0.00000000      96 __u+U IGS20 EXT  IAC
## 2323 129600.00000000   900.00000000 60506 0.5000000000000
+   54   G02G03G04G05G06G07G08G09G10G11G12G13G14G15G16G17G18
+        G19G20G21G22G23G24G25G26G27G28G29G30G31G32R01R02R03
+        R04R05R07R08R09R11R12R13R14R15R16R17R18R19R20R21R22
+        R24R25R26  0  0  0  0  0  0  0  0  0  0  0  0  0  0
+          0  0  0  0  0  0  0  0  0  0  0  0  0  0  0  0  0
++         9  8  8  8  7  7  9 10  9  6  8  8  9  7 10  7  9
++         7  8  8  9  8  7  7  8  8  8  9  9  7  8  9  8 10
++         9  9  7  9  9  9  7  7  8  7  8  8  8  8 10  8  9
++         9  8  7  0  0  0  0  0  0  0  0  0  0  0  0  0  0
++         0  0  0  0  0  0  0  0  0  0  0  0  0  0  0  0  0
%c M  cc GPS ccc cccc cccc cccc cccc ccccc ccccc ccccc ccccc
%c cc cc ccc ccc cccc cccc cccc cccc ccccc ccccc ccccc ccccc
%f  0.0000000  0.000000000  0.00000000000  0.000000000000000
%f  0.0000000  0.000000000  0.00000000000  0.000000000000000
%i    0    0    0    0      0      0      0      0         0
%i    0    0    0    0      0      0      0      0         0
/* IAC                                ULTRA-RAPID PREDICTION
/* S/V CLOCKS ARE ALIGNED TO GNSS TIME                      
/* G:C1WC2W R:C1PC2P E:C1XC5X C:C2IC6I J:C1CC2S             
/* PCV:IGS20_2317 OL/AL:FES2004  NONE     YN ORB:CoN CLK:CoN
*  2024 07 15 13  0  0.00000000
PG02  21947.722751  12337.137283   9404.989598   -398.578911
PG03  14662.258820   2047.937642  21879.879492    459.055876
PG04  25288.857902   1768.981863   8174.887797    404.250826
PG05  -7673.983935 -17913.115104 -18192.700212   -179.826550
PG06    747.277766 -18538.068798  19023.274711    160.083828
PG07  16472.240459  -3032.303121 -20191.309071    -69.528415
PG08  18866.676982   8184.989071 -17147.342323    275.311480
PG09  25236.759369  -7785.245164  -3167.422472    274.144218
PG10 -10405.276640  24044.287349  -2886.827858    -66.793039
PG11 -10775.625183 -22884.711791   8228.192095   -705.215847
PG12 -13901.866074  -5787.519289  21599.662001   -522.456257
PG13 -10451.660657 -13556.347523 -20585.999260    664.700018
PG14  13229.145564 -21934.188866  -6537.980339    449.355041
PG15 -19627.189362  -6484.365743 -17286.288131    181.364960
PG16   3335.818481  20646.085092 -16434.694414   -236.043944
PG17  16838.979701 -13372.644085  16117.868544    677.024026
PG18 -15594.400463   3766.365188 -21191.598806   -636.750666
PG19   7670.858706 -14777.275147  20427.355462    510.775494
PG20  -2996.573593 -24642.986696  -9585.056810    372.737882
PG21  21289.167919  16376.467213   4201.877040    108.775967
PG22   9503.864609 -24905.681394   2252.097796    -39.853067
PG23 -15147.041724  16447.587646 -14144.905174    274.325047
PG24 -21674.082449 -14262.280167   6185.157235   -483.202492
PG25 -16605.502499   6353.448917  19315.920332    498.532111
PG26  -3449.962007  25824.319315  -4159.536418    119.500120
PG27   7825.550860  13817.881956 -21633.128570    -31.168251
PG28  -2590.821868  17537.513277  19768.073861   -332.225316
PG29 -26440.241062   3158.285076   -164.592095   -589.412631
PG30   8484.120884 -13750.002997 -20893.813610   -357.393196
PG31   7123.915632  22162.475167  12201.939520   -226.744299
PG32 -14171.901998  14894.364797  16917.822274   -612.033832
PR01 -20557.805869  14966.887519   2109.825954     91.442222
PR02 -10001.001213  15674.940125  17471.985355    -23.718318
PR03   7012.058159   8364.529964  23101.268648    103.813519
PR04  19540.225787  -3285.450593  16099.017649    245.380736
PR05  21885.519631 -13118.797427    453.578020    134.577133
PR07  -7544.808163  -7965.347052 -22986.554203     86.698604
PR08 -19649.144332   3598.047615 -15784.202013     -5.941321
PR09    906.292694 -24862.500451  -5403.446779    197.821428
PR11 -10746.417289  -7914.022100  21748.808986     18.125227
PR12  -8943.004366  13364.285026  19828.587531     42.478672
PR13  -2529.941479  24079.316702   8022.244723    -49.370593
PR14   6753.051838  21731.344693 -11530.611820     26.710162
PR15  10952.814902   6225.225449 -22155.951552     77.848857
PR16   8800.621532 -13182.450589 -19956.699894     27.381841
PR17  17660.912300  14982.276058 -10633.489338    104.817150
PR18  22920.948653   9646.986772   5784.703412    152.071863
PR19  17721.748223    984.927434  18310.097745   -283.954136
PR20   -777.039342 -12116.789452  22430.903859   -116.196908
PR21 -17317.769881 -15166.627423  11020.180000   -117.719478
PR22 -22660.078276  -9480.225221  -6844.293304     87.974398
PR24   1662.977239  12693.050585 -22046.662497    -63.839870
PR25 -17243.679073 -15764.447415  10270.683048    -96.571927
PR26 -18971.761581   2738.289373 -16823.608313      4.441772
*  2024 07 15 13 15  0.00000000
PG02  22453.472563  13056.562390   6753.665631   -398.572324
PG03  13912.081227   4475.895112  22016.701961    459.070776
PG04  24270.377460   2174.456012  10749.615285    404.257828
PG05  -7053.558952 -19765.039837 -16414.682691   -179.827668
PG06   2304.417244 -16927.888234  20365.761533    160.063287
PG07  17992.323403  -1243.062547 -19123.326559    -69.521473
PG08  16946.418533   8828.497084 -18730.854276    275.326071
PG09  25483.849367  -7584.947182   -327.090364    274.157797
PG10 -10450.255418  23484.064151  -5752.558141    -66.801796
PG11  -9916.021606 -22191.988220  10804.403957   -705.221989
PG12 -12977.164765  -8133.260449  21424.863946   -522.459012
PG13  -8111.227457 -13801.306105 -21448.289498    664.702237
PG14  13218.623606 -20976.016792  -9177.699567    449.363066
PG15 -17847.004576  -7358.583673 -18826.086251    181.368801
PG16   2500.952407  22170.468027 -14392.679055   -236.034442
PG17  18492.689504 -13492.265857  14028.732405    677.017228
PG18 -17122.528194   1959.090378 -20253.967690   -636.754279
PG19   9981.635652 -14934.279762  19255.493708    510.780350
PG20  -2637.919050 -25557.778501  -6966.339028    372.737549
PG21  21373.652938  16680.864150   1428.334242    108.773699
PG22   9737.657742 -24863.070155   -584.631652    -39.857137
PG23 -14827.693709  14722.967883 -16243.629022    274.333066
PG24 -21922.510362 -14880.595304   3480.076729   -483.203940
PG25 -16068.868180   4065.110824  20364.345359    498.532433
PG26  -3873.610138  26042.269669  -1367.704453    119.493893
PG27   5464.412952  14384.923390 -21953.494669    -31.169073
PG28  -4287.495967  15948.815043  20791.526087   -332.239615
PG29 -26324.081574   2921.810366   2699.173699   -589.410906
PG30  10188.221774 -11983.217229 -21239.269472   -357.387334
PG31   5897.487502  21147.991240  14448.252215   -226.744024
PG32 -15959.605903  15137.016101  14955.522045   -612.032055
PR01 -20521.481574  15124.496644  -1100.881063     91.443164
PR02 -11612.615950  16883.313710  15189.789898    -23.718542
PR03   4660.332752   9953.128749  23060.726283    103.814030
PR04  17707.561062  -2221.300986  18258.641816    245.382027
PR05  21573.898630 -13132.162853   3667.259137    134.577539
PR07  -5180.046203  -9557.242392 -23038.270212     86.699127
PR08 -17849.666724   2517.267213 -17973.976409     -5.941729
PR09    916.384922 -24000.041208  -8442.297979    197.823260
PR11 -11018.525939 -10502.825465  20476.926004     18.124010
PR12  -9077.775536  10839.215834  21259.730918     42.479004
PR13  -2516.301011  22902.872859  10938.765905    -49.371099
PR14   6963.606353  22965.514704  -8663.342170     26.710132
PR15  11197.759035   8888.457076 -21102.205975     77.848440
PR16   8942.400551 -10630.596530 -21368.334680     27.382073
PR17  16399.104548  14180.579560 -13397.714553    104.820089
PR18  23473.974481   9698.605537   2601.836396    152.073441
PR19  19660.044790   1880.457349  16131.681654   -283.955388
PR20   1665.259717 -10720.757413  23086.387825   -116.197520
PR21 -16029.537767 -14322.970110  13754.390753   -117.722335
PR22 -23304.827948  -9664.722048  -3716.886813     87.968528
PR24   -805.129557  11436.985326 -22771.662472    -63.841246
PR25 -16042.388568 -14965.020171  13038.259751    -96.573764
PR26 -17090.671358   1581.799719 -18860.494911      4.443482
EOF
